LINGQIAO VIDEO A        
1 40959U 15057B   26183.87124546  .00000535  00000+0  81841-4 0  9990
2 40959  97.6620 177.8998 0015639 214.4767 145.5431 14.77412113577725
LINGQIAO VIDEO B        
1 40960U 15057C   26183.91451348  .00000368  00000+0  58302-4 0  9990
2 40960  97.6587 179.1003 0015776 214.3774 145.6418 14.77518570577775
JILIN-1                 
1 40961U 15057D   26183.85331815  .00000980  00000+0  14175-3 0  9999
2 40961  97.6511 182.4424 0016099 207.6589 152.3768 14.78186181577925
FOX-1A (AO-85)          
1 40967U 15058D   26183.84648019  .00002755  00000+0  25058-3 0  9996
2 40967  64.7736 230.3176 0131468  50.5060 310.7590 14.91035738115904
SINOD-D 1               
1 40968U 15058E   26183.78839911  .00004233  00000+0  33917-3 0  9999
2 40968  64.7730 210.0523 0120102  46.9321 314.1771 14.95999124118995
ELEKTRO-L 2             
1 41105U 15074A   26182.93811038 -.00000111  00000+0  00000+0 0  9992
2 41105   6.7296  70.3426 0000516 273.6365 259.1662  1.00271077 38657
DAMPE                   
1 41173U 15078A   26183.85652666  .00001619  00000+0  56870-4 0  9997
2 41173  97.4554 189.4005 0012894  28.0550 332.1383 15.30827010586945
ORBCOMM FM110           
1 41182U 15081D   26183.65009341  .00000812  00000+0  20786-3 0  9995
2 41182  47.0024 288.3297 0002908 165.1476 194.9496 14.58904840559883
ORBCOMM FM112           
1 41184U 15081F   26183.75716073  .00000548  00000+0  15195-3 0  9999
2 41184  46.9971 196.6196 0004130 278.6785  81.3632 14.58921598561226
ORBCOMM FM113           
1 41185U 15081G   26183.73429860  .00000358  00000+0  11196-3 0  9999
2 41185  46.9987 197.1118 0002625 277.7758  82.2829 14.58871935561206
ORBCOMM FM108           
1 41187U 15081J   26183.83348505  .00000764  00000+0  19767-3 0  9991
2 41187  47.0046 108.2203 0003134 278.3244  81.7286 14.58894583562360
ORBCOMM FM117           
1 41188U 15081K   26183.79911375  .00000651  00000+0  17401-3 0  9996
2 41188  47.0010 107.0129 0003573 282.7851  77.2635 14.58881463562402
ORBCOMM FM116           
1 41189U 15081L   26182.47813415  .00000304  00000+0  10040-3 0  9994
2 41189  47.0005 203.0491 0000940 184.3505 175.7373 14.58897315561027
HORYU-4                 
1 41340U 16012D   26182.79199294  .04204222 -38650-5  11151-2 0  9996
2 41340  30.9791 330.1929 0008659 346.1826  13.8606 16.27112331573161
ZIYUAN 3-02 (ZY 3-02)   
1 41556U 16033A   26183.84457274  .00005985  00000+0  26983-3 0  9992
2 41556  97.3831 259.3177 0012885 230.0003 130.0102 15.21330086560366
CARTOSAT-2C             
1 41599U 16040A   26183.40686126  .00003399  00000+0  16404-3 0  9993
2 41599  97.4476 243.1756 0010537  85.9757 274.2682 15.19310275556025
LAPAN-A3                
1 41603U 16040E   26183.85534495  .00004331  00000+0  13721-3 0  9995
2 41603  97.1492 179.4873 0008955 328.9678  31.1035 15.33208012557215
GAOFEN-3                
1 41727U 16049A   26183.83277896 -.00000084  00000+0 -12203-4 0  9996
2 41727  98.4007 191.3823 0001695  94.0944 266.0439 14.42217014520901
CAS-2T & KS-1Q          
1 41847U 16066G   26183.68531959  .00001723  00000+0  24772-3 0  9996
2 41847  98.3817 259.2443 0342792  82.6153 281.3850 14.44744917507030
YUNHAI-1 01             
1 41857U 16068A   26183.46335259  .00000686  00000+0  26836-3 0  9990
2 41857  98.5853 194.3265 0003914  23.8846 336.2518 14.32715560504015
RESOURCESAT-2A          
1 41877U 16074A   26183.83643410  .00000161  00000+0  93406-4 0  9997
2 41877  98.7527 257.2127 0003017  53.1724 306.9729 14.21605459496525
TANSAT                  
1 41898U 16081A   26183.87455947  .00000335  00000+0  80200-4 0  9999
2 41898  98.5360 184.5958 0019094 260.6479  99.2561 14.59963432506919
JILIN-1 03              
1 41914U 17002B   26183.79745216  .00013548  00000+0  31975-3 0  9998
2 41914  97.1945 190.6650 0007957 111.9219 248.2875 15.41959394524260
CARTOSAT-2D             
1 41948U 17008A   26183.83397032  .00004457  00000+0  21492-3 0  9997
2 41948  97.4097 242.8477 0004780 176.6069 183.5199 15.19202800519955
