OBJECT_NAME,OBJECT_ID,EPOCH,MEAN_MOTION,ECCENTRICITY,INCLINATION,RA_OF_ASC_NODE,ARG_OF_PERICENTER,MEAN_ANOMALY,EPHEMERIS_TYPE,CLASSIFICATION_TYPE,NORAD_CAT_ID,ELEMENT_SET_NO,REV_AT_EPOCH,BSTAR,MEAN_MOTION_DOT,MEAN_MOTION_DDOT
LINGQIAO VIDEO A,2015-057B,2026-07-02T20:54:35.607744,14.77412113,.0015639,97.6620,177.8998,214.4767,145.5431,0,U,40959,999,57772,.81841E-4,.535E-5,0
LINGQIAO VIDEO B,2015-057C,2026-07-02T21:56:53.964672,14.77518570,.0015776,97.6587,179.1003,214.3774,145.6418,0,U,40960,999,57777,.58302E-4,.368E-5,0
JILIN-1,2015-057D,2026-07-02T20:28:46.688160,14.78186181,.0016099,97.6511,182.4424,207.6589,152.3768,0,U,40961,999,57792,.14175E-3,.98E-5,0
FOX-1A (AO-85),2015-058D,2026-07-02T20:18:55.888416,14.91035738,.0131468,64.7736,230.3176,50.5060,310.7590,0,U,40967,999,11590,.25058E-3,.2755E-4,0
SINOD-D 1,2015-058E,2026-07-02T18:55:17.683104,14.95999124,.0120102,64.7730,210.0523,46.9321,314.1771,0,U,40968,999,11899,.33917E-3,.4233E-4,0
ELEKTRO-L 2,2015-074A,2026-07-01T22:30:52.736832,1.00271077,.00005169,6.7296,70.3426,273.6365,259.1662,0,U,41105,999,3865,0,-.111E-5,0
DAMPE,2015-078A,2026-07-02T20:33:23.903424,15.30827010,.0012894,97.4554,189.4005,28.0550,332.1383,0,U,41173,999,58694,.5687E-4,.1619E-4,0
ORBCOMM FM110,2015-081D,2026-07-02T15:36:08.070624,14.58904840,.0002908,47.0024,288.3297,165.1476,194.9496,0,U,41182,999,55988,.20786E-3,.812E-5,0
ORBCOMM FM112,2015-081F,2026-07-02T18:10:18.687072,14.58921598,.000413,46.9971,196.6196,278.6785,81.3632,0,U,41184,999,56122,.15195E-3,.548E-5,0
ORBCOMM FM113,2015-081G,2026-07-02T17:37:23.399040,14.58871935,.0002625,46.9987,197.1118,277.7758,82.2829,0,U,41185,999,56120,.11196E-3,.358E-5,0
ORBCOMM FM108,2015-081J,2026-07-02T20:00:13.108320,14.58894583,.0003134,47.0046,108.2203,278.3244,81.7286,0,U,41187,999,56236,.19767E-3,.764E-5,0
ORBCOMM FM117,2015-081K,2026-07-02T19:10:43.428000,14.58881463,.0003573,47.0010,107.0129,282.7851,77.2635,0,U,41188,999,56240,.17401E-3,.651E-5,0
ORBCOMM FM116,2015-081L,2026-07-01T11:28:30.790560,14.58897315,.00009405,47.0005,203.0491,184.3505,175.7373,0,U,41189,999,56102,.10040343E-3,.304E-5,0
HORYU-4,2016-012D,2026-07-01T19:00:28.190016,16.27112331,.00086595,30.9791,330.1929,346.1826,13.8606,0,U,41340,999,57316,.11150615E-2,.4204222E-1,-.3865025E-5
ZIYUAN 3-02 (ZY 3-02),2016-033A,2026-07-02T20:16:11.084736,15.21330086,.0012885,97.3831,259.3177,230.0003,130.0102,0,U,41556,999,56036,.26983E-3,.5985E-4,0
CARTOSAT-2C,2016-040A,2026-07-02T09:45:52.812864,15.19310275,.0010537,97.4476,243.1756,85.9757,274.2682,0,U,41599,999,55602,.16404E-3,.3399E-4,0
LAPAN-A3,2016-040E,2026-07-02T20:31:41.803680,15.33208012,.0008955,97.1492,179.4873,328.9678,31.1035,0,U,41603,999,55721,.13721E-3,.4331E-4,0
GAOFEN-3,2016-049A,2026-07-02T19:59:12.102144,14.42217014,.0001695,98.4007,191.3823,94.0944,266.0439,0,U,41727,999,52090,-.12203E-4,-.84E-6,0
CAS-2T & KS-1Q,2016-066G,2026-07-02T16:26:51.612576,14.44744917,.0342792,98.3817,259.2443,82.6153,281.3850,0,U,41847,999,50703,.24772E-3,.1723E-4,0
YUNHAI-1 01,2016-068A,2026-07-02T11:07:13.663776,14.32715560,.0003914,98.5853,194.3265,23.8846,336.2518,0,U,41857,999,50401,.26836E-3,.686E-5,0
RESOURCESAT-2A,2016-074A,2026-07-02T20:04:27.906240,14.21605459,.0003017,98.7527,257.2127,53.1724,306.9729,0,U,41877,999,49652,.93406E-4,.161E-5,0
TANSAT,2016-081A,2026-07-02T20:59:21.938208,14.59963432,.0019094,98.5360,184.5958,260.6479,99.2561,0,U,41898,999,50691,.802E-4,.335E-5,0
JILIN-1 03,2017-002B,2026-07-02T19:08:19.866624,15.41959394,.0007957,97.1945,190.6650,111.9219,248.2875,0,U,41914,999,52426,.31975E-3,.13548E-3,0
CARTOSAT-2D,2017-008A,2026-07-02T20:00:55.035648,15.19202800,.000478,97.4097,242.8477,176.6069,183.5199,0,U,41948,999,51995,.21492E-3,.4457E-4,0
